NORAD_CAT_ID,OBJECT_NAME,OBJECT_TYPE,EPOCH,MEAN_MOTION,ECCENTRICITY,INCLINATION,RA_OF_ASC_NODE,ARG_OF_PERICENTER,MEAN_ANOMALY,BSTAR,MEAN_MOTION_DOT,MEAN_MOTION_DDOT,TLE_LINE0,TLE_LINE1,TLE_LINE2,SEMIMAJOR_AXIS,PERIOD,APOGEE,PERIGEE,DECAYED
50178.0,STARLINK-3284,PAYLOAD,2022-09-15 02:44:21,15.08828485,0.0001795,53.2166,197.4369,48.3534,311.7612,6.5935e-05,7.61e-06,0.0,0 STARLINK-3284,1 50178U 21125Y   22258.11413747  .00000761  00000-0  65935-4 0  9995,2 50178  53.2166 197.4369 0001795  48.3534 311.7612 15.08828485 44147,6917.916,95.438,541.0219999999998,538.539,0.0
50178.0,STARLINK-3284,PAYLOAD,2022-09-15 05:55:07,15.08831579,0.0001793,53.2167,196.8422,48.1257,311.9888,3.931e-05,3.37e-06,0.0,0 STARLINK-3284,1 50178U 21125Y   22258.24661769  .00000337  00000-0  39310-4 0  9995,2 50178  53.2167 196.8422 0001793  48.1257 311.9888 15.08831579 44694,6917.906,95.438,541.012,538.531,0.0
50178.0,STARLINK-3284,PAYLOAD,2022-09-15 23:24:21,15.08840351,0.0001676999999999,53.2163,193.5709,43.5002,316.6122,8.2297e-05,1.022e-05,0.0,0 STARLINK-3284,1 50178U 21125Y   22258.97525094  .00001022  00000-0  82297-4 0  9999,2 50178  53.2163 193.5709 0001677  43.5002 316.6122 15.08840351 44275,6917.879,95.438,540.904,538.5840000000002,0.0
50178.0,STARLINK-3284,PAYLOAD,2022-09-16 12:07:26,15.08837516,0.0001781,53.2167,191.1919,47.8237,312.2906,0.00011839,1.596e-05,0.0,0 STARLINK-3284,1 50178U 21125Y   22259.50517317  .00001596  00000-0  11839-3 0  9997,2 50178  53.2167 191.1919 0001781  47.8237 312.2906 15.08837516 44887,6917.888000000001,95.438,540.985,538.521,0.0
50178.0,STARLINK-3284,PAYLOAD,2022-09-17 05:36:42,15.08826267,0.0001719,53.2167,187.9213,46.1097,314.0037,-3.0726e-05,-7.77e-06,0.0,0 STARLINK-3284,1 50178U 21125Y   22260.23383036 -.00000777  00000-0 -30726-4 0  9997,2 50178  53.2167 187.9213 0001719  46.1097 314.0037 15.08826267 44464,6917.922,95.438,540.977,538.5980000000002,0.0
50178.0,STARLINK-3284,PAYLOAD,2022-09-17 11:58:15,15.08831298,0.0001698,53.2168,186.7322,47.5787,312.5349,9.7469e-06,-1.33e-06,0.0,0 STARLINK-3284,1 50178U 21125Y   22260.49878771 -.00000133  00000-0  97469-5 0  9993,2 50178  53.2168 186.7322 0001698  47.5787 312.5349 15.08831298 44504,6917.906999999997,95.438,540.947,538.597,0.0
50178.0,STARLINK-3284,PAYLOAD,2022-09-18 03:52:05,15.08842563,0.0001757,53.2167,183.7585,48.1665,311.9477,8.0325e-05,9.91e-06,0.0,0 STARLINK-3284,1 50178U 21125Y   22261.16118055  .00000991  00000-0  80325-4 0  9993,2 50178  53.2167 183.7585 0001757  48.1665 311.9477 15.08842563 44602,6917.873000000001,95.437,540.953,538.5219999999998,0.0
50178.0,STARLINK-3284,PAYLOAD,2022-09-18 11:49:01,15.08842864,0.0001759,53.2168,182.2717,48.5905,311.5238,7.5188e-05,9.09e-06,0.0,0 STARLINK-3284,1 50178U 21125Y   22261.49238073  .00000909  00000-0  75188-4 0  9992,2 50178  53.2168 182.2717 0001759  48.5905 311.5238 15.08842864 45186,6917.871999999999,95.437,540.953,538.52,0.0
50178.0,STARLINK-3284,PAYLOAD,2022-09-19 03:42:53,15.08840431,0.0001754,53.2168,179.2979,45.6376,314.476,0.0002106999999999,3.067e-05,0.0,0 STARLINK-3284,1 50178U 21125Y   22262.15478211  .00003067  00000-0  21070-3 0  9994,2 50178  53.2168 179.2979 0001754  45.6376 314.4760 15.08840431 45288,6917.879,95.438,540.957,538.531,0.0
50178.0,STARLINK-3284,PAYLOAD,2022-09-20 03:33:41,15.08837733,0.0001996999999999,53.2187,174.8343,50.5257,309.5912,-6.3136e-06,-3.89e-06,0.0,0 STARLINK-3284,1 50178U 21125Y   22263.14839155 -.00000389  00000-0 -63136-5 0  9999,2 50178  53.2187 174.8343 0001997  50.5257 309.5912 15.08837733 44900,6917.887,95.438,541.134,538.371,0.0
50178.0,STARLINK-3284,PAYLOAD,2022-09-20 11:30:37,15.0883128,0.0001732,53.2155,173.3507,48.34,311.774,-3.1734e-05,-7.93e-06,0.0,0 STARLINK-3284,1 50178U 21125Y   22263.47959627 -.00000793  00000-0 -31734-4 0  9999,2 50178  53.2155 173.3507 0001732  48.3400 311.7740 15.08831280 44953,6917.906999999997,95.438,540.97,538.5740000000002,0.0
50178.0,STARLINK-3284,PAYLOAD,2022-09-21 03:24:27,15.08842535,0.0001344,53.2174,170.3758,53.0825,307.029,9.8692e-06,-1.31e-06,0.0,0 STARLINK-3284,1 50178U 21125Y   22264.14198906 -.00000131  00000-0  98692-5 0  9991,2 50178  53.2174 170.3758 0001344  53.0825 307.0290 15.08842535 45057,6917.873000000001,95.437,540.6669999999998,538.808,0.0
50178.0,STARLINK-3284,PAYLOAD,2022-09-21 11:21:23,15.08842208,0.0001673,53.2175,168.8909,35.2225,324.8878,2.808e-05,1.59e-06,0.0,0 STARLINK-3284,1 50178U 21125Y   22264.47318833  .00000159  00000-0  28080-4 0  9992,2 50178  53.2175 168.8909 0001673  35.2225 324.8878 15.08842208 45639,6917.874,95.437,540.896,538.581,0.0
50178.0,STARLINK-3284,PAYLOAD,2022-09-23 04:41:25,15.08842862,0.0001771,53.2168,161.1591,50.7577,309.3572,0.00010796,1.431e-05,0.0,0 STARLINK-3284,1 50178U 21125Y   22266.19543233  .00001431  00000-0  10796-3 0  9995,2 50178  53.2168 161.1591 0001771  50.7577 309.3572 15.08842862 45360,6917.871999999999,95.437,540.962,538.511,0.0
50178.0,STARLINK-3284,PAYLOAD,2022-09-23 12:38:20,15.0884586,0.0001692,53.2161,159.6725,52.0342,308.0802,0.00012822,1.753e-05,0.0,0 STARLINK-3284,1 50178U 21125Y   22266.52662901  .00001753  00000-0  12822-3 0  9995,2 50178  53.2161 159.6725 0001692  52.0342 308.0802 15.08845860 45948,6917.861999999999,95.437,540.898,538.557,0.0
50178.0,STARLINK-3284,PAYLOAD,2022-09-23 20:35:17,15.08836476,0.0001696,53.2163,158.1852,49.7243,310.3897,7.4545e-05,8.98e-06,0.0,0 STARLINK-3284,1 50178U 21125Y   22266.85783613  .00000898  00000-0  74545-4 0  9995,2 50178  53.2163 158.1852 0001696  49.7243 310.3897 15.08836476 45990,6917.891,95.438,540.929,538.5830000000002,0.0
50178.0,STARLINK-3284,PAYLOAD,2022-09-24 12:29:07,15.08850817,0.0001724,53.2161,155.2115,49.3145,310.7997,0.00016233,2.297e-05,0.0,0 STARLINK-3284,1 50178U 21125Y   22267.52022418  .00002297  00000-0  16233-3 0  9993,2 50178  53.2161 155.2115 0001724  49.3145 310.7997 15.08850817 45560,6917.847,95.437,540.905,538.52,0.0
50178.0,STARLINK-3284,PAYLOAD,2022-09-24 20:26:03,15.08845462,0.0001743,53.2156,153.725,49.093,311.0213,0.00011502,1.543e-05,0.0,0 STARLINK-3284,1 50178U 21125Y   22267.85142874  .00001543  00000-0  11502-3 0  9995,2 50178  53.2156 153.7250 0001743  49.0930 311.0213 15.08845462 45618,6917.864000000001,95.437,540.934,538.523,0.0
50178.0,STARLINK-3284,PAYLOAD,2022-09-25 12:19:54,15.08845943,0.0001723,53.2156,150.7515,48.3354,311.7785,5.7872e-05,6.33e-06,0.0,0 STARLINK-3284,1 50178U 21125Y   22268.51382494  .00000633  00000-0  57872-4 0  9993,2 50178  53.2156 150.7515 0001723  48.3354 311.7785 15.08845943 46244,6917.861999999999,95.437,540.919,538.535,0.0
50178.0,STARLINK-3284,PAYLOAD,2022-09-25 20:16:50,15.08836525,0.0001717,53.2155,149.2642,55.2661,304.8492,-2.5149000000000003e-06,-3.28e-06,0.0,0 STARLINK-3284,1 50178U 21125Y   22268.84502924 -.00000328  00000-0 -25149-5 0  9997,2 50178  53.2155 149.2642 0001717  55.2661 304.8492 15.08836525 46297,6917.891,95.438,540.944,538.568,0.0
50178.0,STARLINK-3284,PAYLOAD,2022-09-26 04:13:46,15.08831005,0.0001740999999999,53.2163,147.7772,48.8049,311.3093,-7.7401e-06,-4.11e-06,0.0,0 STARLINK-3284,1 50178U 21125Y   22269.17623770 -.00000411  00000-0 -77401-5 0  9998,2 50178  53.2163 147.7772 0001741  48.8049 311.3093 15.08831005 45813,6917.908,95.438,540.977,538.568,0.0
50178.0,STARLINK-3284,PAYLOAD,2022-09-26 12:10:42,15.08834902,0.0001717,53.2162,146.2907,48.6113,311.5027,-6.183399999999999e-05,-1.272e-05,0.0,0 STARLINK-3284,1 50178U 21125Y   22269.50743763 -.00001272  00000-0 -61834-4 0  9998,2 50178  53.2162 146.2907 0001717  48.6113 311.5027 15.08834902 46391,6917.896,95.438,540.9490000000002,538.573,0.0
50178.0,STARLINK-3284,PAYLOAD,2022-09-26 20:07:39,15.08825415,0.0001847,53.2163,144.8042,47.3077,312.807,-8.625700000000001e-05,-1.66e-05,0.0,0 STARLINK-3284,1 50178U 21125Y   22269.83864643 -.00001660  00000-0 -86257-4 0  9992,2 50178  53.2163 144.8042 0001847  47.3077 312.8070 15.08825415 46442,6917.925,95.438,541.068,538.512,0.0
50178.0,STARLINK-3284,PAYLOAD,2022-09-27 08:50:43,15.08834229,0.0001806,53.2163,142.425,50.2615,309.8536,-4.0476e-05,-9.32e-06,0.0,0 STARLINK-3284,1 50178U 21125Y   22270.36856299 -.00000932  00000-0 -40476-4 0  9994,2 50178  53.2163 142.4250 0001806  50.2615 309.8536 15.08834229 45998,6917.898,95.438,541.012,538.514,0.0
50178.0,STARLINK-3284,PAYLOAD,2022-09-27 19:58:25,15.08839816,0.000186,53.2162,140.3435,52.7679,307.3483,8.7182e-05,1.1e-05,0.0,0 STARLINK-3284,1 50178U 21125Y   22270.83223815  .00001100  00000-0  87182-4 0  9999,2 50178  53.2162 140.3435 0001860  52.7679 307.3483 15.08839816 46066,6917.880999999999,95.438,541.033,538.4590000000002,0.0
50178.0,STARLINK-3284,PAYLOAD,2022-09-28 08:41:30,15.08844473,0.0001898,53.2163,137.9645,52.4062,307.7102,0.00022586,3.309e-05,0.0,0 STARLINK-3284,1 50178U 21125Y   22271.36215477  .00003309  00000-0  22586-3 0  9992,2 50178  53.2163 137.9645 0001898  52.4062 307.7102 15.08844473 46670,6917.8669999999975,95.437,541.045,538.419,0.0
50178.0,STARLINK-3284,PAYLOAD,2022-09-28 19:49:12,15.08842969,0.0001875,53.215,135.8829,53.9236,306.193,0.0003662,5.545e-05,0.0,0 STARLINK-3284,1 50178U 21125Y   22271.82584352  .00005545  00000-0  36620-3 0  9992,2 50178  53.2150 135.8829 0001875  53.9236 306.1930 15.08842969 46749,6917.871,95.437,541.033,538.439,0.0
50178.0,STARLINK-3284,PAYLOAD,2022-09-29 03:46:08,15.08855409,0.0001904,53.2143,134.3959,53.2726,306.8441,0.00040494,6.165e-05,0.0,0 STARLINK-3284,1 50178U 21125Y   22272.15703805  .00006165  00000-0  40494-3 0  9998,2 50178  53.2143 134.3959 0001904  53.2726 306.8441 15.08855409 46263,6917.833000000001,95.437,541.015,538.381,0.0
50178.0,STARLINK-3284,PAYLOAD,2022-09-29 11:43:03,15.08846536,0.0001883,53.2142,132.9089,54.8919,305.225,0.00016874,2.399e-05,0.0,0 STARLINK-3284,1 50178U 21125Y   22272.48823830  .00002399  00000-0  16874-3 0  9995,2 50178  53.2142 132.9089 0001883  54.8919 305.2250 15.08846536 46315,6917.86,95.437,541.028,538.423,0.0
